[
    {
        "Altitude(m)": 624792.7402116742,
        "Argument of Periapsis(deg)": 0.0,
        "Eccentricity": 0.0,
        "Inclination(deg)": 60.0,
        "Latitude(deg)": -59.14699098187578,
        "Longitude(deg)": 74.02646563087109,
        "Mean Anomaly(deg)": -98.18179999999998,
        "RAAN(deg)": 280.0,
        "Satellite Name": "Test1 1248",
        "Satellite Number": 1248,
        "Semi-Major Axis(m)": 6980739.136638005,
        "Time(s)": 0
    },
    {
        "Altitude(m)": 624842.1320927122,
        "Argument of Periapsis(deg)": 0.00010418945913296404,
        "Eccentricity": 0.0,
        "Inclination(deg)": 60.0,
        "Latitude(deg)": -59.28907385027771,
        "Longitude(deg)": 75.1559668463825,
        "Mean Anomaly(deg)": -97.56169385453813,
        "RAAN(deg)": 279.99957995086027,
        "Satellite Name": "Test1 1248",
        "Satellite Number": 1248,
        "Semi-Major Axis(m)": 6980739.136638005,
        "Time(s)": 10
    },
    {
        "Altitude(m)": 624887.6997216368,
        "Argument of Periapsis(deg)": 0.0002083789182659281,
        "Eccentricity": 0.0,
        "Inclination(deg)": 60.0,
        "Latitude(deg)": -59.42054589990869,
        "Longitude(deg)": 76.29488850929818,
        "Mean Anomaly(deg)": -96.94158770907629,
        "RAAN(deg)": 279.9991599017205,
        "Satellite Name": "Test1 1248",
        "Satellite Number": 1248,
        "Semi-Major Axis(m)": 6980739.136638005,
        "Time(s)": 20
    },
    {
        "Altitude(m)": 624929.4251351786,
        "Argument of Periapsis(deg)": 0.00031256837739889213,
        "Eccentricity": 0.0,
        "Inclination(deg)": 60.0,
        "Latitude(deg)": -59.541269830998026,
        "Longitude(deg)": 77.44260831810746,
        "Mean Anomaly(deg)": -96.32148156361448,
        "RAAN(deg)": 279.9987398525808,
        "Satellite Name": "Test1 1248",
        "Satellite Number": 1248,
        "Semi-Major Axis(m)": 6980739.136638005,
        "Time(s)": 30
    },
    {
        "Altitude(m)": 624967.2918812357,
        "Argument of Periapsis(deg)": 0.0004167578365318562,
        "Eccentricity": 0.0,
        "Inclination(deg)": 60.0,
        "Latitude(deg)": -59.65111747713866,
        "Longitude(deg)": 78.59846898709556,
        "Mean Anomaly(deg)": -95.70137541815262,
        "RAAN(deg)": 279.99831980344106,
        "Satellite Name": "Test1 1248",
        "Satellite Number": 1248,
        "Semi-Major Axis(m)": 6980739.136638005,
        "Time(s)": 40
    },
    {
        "Altitude(m)": 625001.2850258045,
        "Argument of Periapsis(deg)": 0.0005209472956648203,
        "Eccentricity": 0.0,
        "Inclination(deg)": 60.0,
        "Latitude(deg)": -59.74997044436702,
        "Longitude(deg)": 79.76177908305253,
        "Mean Anomaly(deg)": -95.08126927269078,
        "RAAN(deg)": 279.9978997543013,
        "Satellite Name": "Test1 1248",
        "Satellite Number": 1248,
        "Semi-Major Axis(m)": 6980739.136638005,
        "Time(s)": 50
    },
    {
        "Altitude(m)": 625031.3911592709,
        "Argument of Periapsis(deg)": 0.0006251367547977843,
        "Eccentricity": 0.0,
        "Inclination(deg)": 60.0,
        "Latitude(deg)": -59.83772071716861,
        "Longitude(deg)": 80.93181569954366,
        "Mean Anomaly(deg)": -94.46116312722903,
        "RAAN(deg)": 279.9974797051615,
        "Satellite Name": "Test1 1248",
        "Satellite Number": 1248,
        "Semi-Major Axis(m)": 6980739.136638005,
        "Time(s)": 60
    },
    {
        "Altitude(m)": 625057.5984020729,
        "Argument of Periapsis(deg)": 0.0007293262139307483,
        "Eccentricity": 0.0,
        "Inclination(deg)": 60.0,
        "Latitude(deg)": -59.914271224574456,
        "Longitude(deg)": 82.10782744563453,
        "Mean Anomaly(deg)": -93.84105698176712,
        "RAAN(deg)": 279.9970596560218,
        "Satellite Name": "Test1 1248",
        "Satellite Number": 1248,
        "Semi-Major Axis(m)": 6980739.136638005,
        "Time(s)": 70
    },
    {
        "Altitude(m)": 625079.8964096812,
        "Argument of Periapsis(deg)": 0.0008335156730637124,
        "Eccentricity": 0.0,
        "Inclination(deg)": 60.0,
        "Latitude(deg)": -59.979536359719056,
        "Longitude(deg)": 83.2890362202961,
        "Mean Anomaly(deg)": -93.22095083630536,
        "RAAN(deg)": 279.996639606882,
        "Satellite Name": "Test1 1248",
        "Satellite Number": 1248,
        "Semi-Major Axis(m)": 6980739.136638005,
        "Time(s)": 80
    },
    {
        "Altitude(m)": 625098.276376977,
        "Argument of Periapsis(deg)": 0.0009377051321966765,
        "Eccentricity": 0.0,
        "Inclination(deg)": 60.0,
        "Latitude(deg)": -60.03344244658184,
        "Longitude(deg)": 84.47464077683483,
        "Mean Anomaly(deg)": -92.60084469084352,
        "RAAN(deg)": 279.9962195577423,
        "Satellite Name": "Test1 1248",
        "Satellite Number": 1248,
        "Semi-Major Axis(m)": 6980739.136638005,
        "Time(s)": 90
    },
    {
        "Altitude(m)": 625112.7310419464,
        "Argument of Periapsis(deg)": 0.0010418945913296407,
        "Eccentricity": 0.0,
        "Inclination(deg)": 60.0,
        "Latitude(deg)": -60.075928148120596,
        "Longitude(deg)": 85.66382053777399,
        "Mean Anomaly(deg)": -91.98073854538167,
        "RAAN(deg)": 279.99579950860254,
        "Satellite Name": "Test1 1248",
        "Satellite Number": 1248,
        "Semi-Major Axis(m)": 6980739.136638005,
        "Time(s)": 100
    },
    {
        "Altitude(m)": 625123.2546887374,
        "Argument of Periapsis(deg)": 0.0011460840504626045,
        "Eccentricity": 0.0,
        "Inclination(deg)": 60.0,
        "Latitude(deg)": -60.10694481061567,
        "Longitude(deg)": 86.85573811568756,
        "Mean Anomaly(deg)": -91.36063239991987,
        "RAAN(deg)": 279.9953794594628,
        "Satellite Name": "Test1 1248",
        "Satellite Number": 1248,
        "Semi-Major Axis(m)": 6980739.136638005,
        "Time(s)": 110
    },
    {
        "Altitude(m)": 625129.8431500741,
        "Argument of Periapsis(deg)": 0.0012502735095955685,
        "Eccentricity": 0.0,
        "Inclination(deg)": 60.0,
        "Latitude(deg)": -60.126456739767555,
        "Longitude(deg)": 88.04954352965517,
        "Mean Anomaly(deg)": -90.740526254458,
        "RAAN(deg)": 279.9949594103231,
        "Satellite Name": "Test1 1248",
        "Satellite Number": 1248,
        "Semi-Major Axis(m)": 6980739.136638005,
        "Time(s)": 120
    },
    {
        "Altitude(m)": 625132.4938090162,
        "Argument of Periapsis(deg)": 0.0013544629687285324,
        "Eccentricity": 0.0,
        "Inclination(deg)": 60.0,
        "Latitude(deg)": -60.13444140492111,
        "Longitude(deg)": 89.24437856462269,
        "Mean Anomaly(deg)": -90.12042010899626,
        "RAAN(deg)": 279.99453936118334,
        "Satellite Name": "Test1 1248",
        "Satellite Number": 1248,
        "Semi-Major Axis(m)": 6980739.136638005,
        "Time(s)": 130
    },
    {
        "Altitude(m)": 625131.2056000577,
        "Argument of Periapsis(deg)": 0.0014586524278614966,
        "Eccentricity": 0.0,
        "Inclination(deg)": 60.0,
        "Latitude(deg)": -60.13088956870259,
        "Longitude(deg)": 90.43937971795467,
        "Mean Anomaly(deg)": -89.5003139635344,
        "RAAN(deg)": 279.99411931204355,
        "Satellite Name": "Test1 1248",
        "Satellite Number": 1248,
        "Semi-Major Axis(m)": 6980739.136638005,
        "Time(s)": 140
    },
    {
        "Altitude(m)": 625125.9790095667,
        "Argument of Periapsis(deg)": 0.0015628418869944607,
        "Eccentricity": 0.0,
        "Inclination(deg)": 60.0,
        "Latitude(deg)": -60.11580534033157,
        "Longitude(deg)": 91.633682713933,
        "Mean Anomaly(deg)": -88.8802078180726,
        "RAAN(deg)": 279.9936992629039,
        "Satellite Name": "Test1 1248",
        "Satellite Number": 1248,
        "Semi-Major Axis(m)": 6980739.136638005,
        "Time(s)": 150
    },
    {
        "Altitude(m)": 625116.8160756113,
        "Argument of Periapsis(deg)": 0.0016670313461274247,
        "Eccentricity": 0.0,
        "Inclination(deg)": 60.0,
        "Latitude(deg)": -60.08920615189159,
        "Longitude(deg)": 92.82642702718019,
        "Mean Anomaly(deg)": -88.26010167261076,
        "RAAN(deg)": 279.9932792137641,
        "Satellite Name": "Test1 1248",
        "Satellite Number": 1248,
        "Semi-Major Axis(m)": 6980739.136638005,
        "Time(s)": 160
    },
    {
        "Altitude(m)": 625103.7203870686,
        "Argument of Periapsis(deg)": 0.0017712208052603888,
        "Eccentricity": 0.0,
        "Inclination(deg)": 60.0,
        "Latitude(deg)": -60.05112265787873,
        "Longitude(deg)": 94.0167588557868,
        "Mean Anomaly(deg)": -87.6399955271489,
        "RAAN(deg)": 279.99285916462435,
        "Satellite Name": "Test1 1248",
        "Satellite Number": 1248,
        "Semi-Major Axis(m)": 6980739.136638005,
        "Time(s)": 170
    },
    {
        "Altitude(m)": 625086.6970821567,
        "Argument of Periapsis(deg)": 0.001875410264393353,
        "Eccentricity": 0.0,
        "Inclination(deg)": 60.0,
        "Latitude(deg)": -60.00159855937635,
        "Longitude(deg)": 95.20383552433437,
        "Mean Anomaly(deg)": -87.01988938168704,
        "RAAN(deg)": 279.9924391154846,
        "Satellite Name": "Test1 1248",
        "Satellite Number": 1248,
        "Semi-Major Axis(m)": 6980739.136638005,
        "Time(s)": 180
    },
    {
        "Altitude(m)": 625065.7528462475,
        "Argument of Periapsis(deg)": 0.0019795997235263173,
        "Eccentricity": 0.0,
        "Inclination(deg)": 60.0,
        "Latitude(deg)": -59.94069035520099,
        "Longitude(deg)": 96.38682976017019,
        "Mean Anomaly(deg)": -86.39978323622525,
        "RAAN(deg)": 279.9920190663449,
        "Satellite Name": "Test1 1248",
        "Satellite Number": 1248,
        "Semi-Major Axis(m)": 6980739.136638005,
        "Time(s)": 190
    }
]